NORAD_CAT_ID,OBJECT_NAME,OBJECT_TYPE,EPOCH,MEAN_MOTION,ECCENTRICITY,INCLINATION,RA_OF_ASC_NODE,ARG_OF_PERICENTER,MEAN_ANOMALY,BSTAR,MEAN_MOTION_DOT,MEAN_MOTION_DDOT,TLE_LINE0,TLE_LINE1,TLE_LINE2,SEMIMAJOR_AXIS,PERIOD,APOGEE,PERIGEE,DECAYED
52265.0,STARLINK-3740,PAYLOAD,2024-03-08 11:31:47,15.08872281,0.0001659,53.2161,151.6495,83.6287,276.4894,0.0014434,0.00022779,0.0,0 STARLINK-3740,1 52265U 22041E   24068.48041357  .00022779  00000-0  14434-2 0  9996,2 52265  53.2161 151.6495 0001659  83.6287 276.4894 15.08872281103978,6917.782,95.436,540.794,538.499,0.0
52265.0,STARLINK-3740,PAYLOAD,2024-03-08 22:39:29,15.08861042,0.0001619,53.2176,149.5637,98.2728,261.8447,0.00082669,0.00012901,0.0,0 STARLINK-3740,1 52265U 22041E   24068.94408907  .00012901  00000-0  82669-3 0  9997,2 52265  53.2176 149.5637 0001619  98.2728 261.8447 15.08861042105265,6917.816,95.436,540.801,538.561,0.0
52265.0,STARLINK-3740,PAYLOAD,2024-03-09 11:22:34,15.08836802,0.0001576,53.2153,147.1882,95.9389,264.1782,0.0013987,0.0002204,0.0,0 STARLINK-3740,1 52265U 22041E   24069.47401350  .00022040  00000-0  13987-2 0  9992,2 52265  53.2153 147.1882 0001576  95.9389 264.1782 15.08836802105348,6917.89,95.438,540.845,538.665,0.0
52265.0,STARLINK-3740,PAYLOAD,2024-03-09 22:30:17,15.08828969,0.0001435,53.2141,145.1049,93.1195,266.9962,0.00095264,0.00014901,0.0,0 STARLINK-3740,1 52265U 22041E   24069.93769723  .00014901  00000-0  95264-3 0  9990,2 52265  53.2141 145.1049 0001435  93.1195 266.9962 15.08828969104194,6917.914,95.438,540.772,538.786,0.0
52265.0,STARLINK-3740,PAYLOAD,2024-03-10 04:51:49,15.08829397,0.0001659,53.2152,143.9127,108.7186,251.3986,0.0005003,7.681e-05,0.0,0 STARLINK-3740,1 52265U 22041E   24070.20266008  .00007681  00000-0  50030-3 0  9999,2 52265  53.2152 143.9127 0001659 108.7186 251.3986 15.08829397105450,6917.913,95.438,540.925,538.63,0.0
52265.0,STARLINK-3740,PAYLOAD,2024-03-10 11:13:22,15.08836652,0.0001645,53.2158,142.7246,102.1613,257.9563,0.00042242,6.441e-05,0.0,0 STARLINK-3740,1 52265U 22041E   24070.46762023  .00006441  00000-0  42242-3 0  9994,2 52265  53.2158 142.7246 0001645 102.1613 257.9563 15.08836652104277,6917.891,95.438,540.894,538.618,0.0
52265.0,STARLINK-3740,PAYLOAD,2024-03-10 22:21:04,15.08838418,0.0001636,53.2155,140.6436,96.3502,263.7677,0.00039924,6.071e-05,0.0,0 STARLINK-3740,1 52265U 22041E   24070.93130239  .00006071  00000-0  39924-3 0  9996,2 52265  53.2155 140.6436 0001636  96.3502 263.7677 15.08838418104344,6917.885,95.438,540.882,538.618,0.0
52265.0,STARLINK-3740,PAYLOAD,2024-03-11 11:04:09,15.08845532,0.000153,53.2157,138.2651,95.8628,264.2538,0.00039348,5.981e-05,0.0,0 STARLINK-3740,1 52265U 22041E   24071.46122061  .00005981  00000-0  39348-3 0  9998,2 52265  53.2157 138.2651 0001530  95.8628 264.2538 15.08845532105645,6917.863,95.437,540.787,538.67,0.0
52265.0,STARLINK-3740,PAYLOAD,2024-03-12 04:33:24,15.08837004,0.0001536,53.2155,134.9941,92.156,267.9608,6.9763e-05,8.22e-06,0.0,0 STARLINK-3740,1 52265U 22041E   24072.18986345  .00000822  00000-0  69763-4 0  9995,2 52265  53.2155 134.9941 0001536  92.1560 267.9608 15.08837004105754,6917.89,95.438,540.817,538.692,0.0
52265.0,STARLINK-3740,PAYLOAD,2024-03-12 20:27:15,15.0884029,0.0001442,53.216,132.0216,91.565,268.5507,6.7688e-05,7.89e-06,0.0,0 STARLINK-3740,1 52265U 22041E   24072.85226185  .00000789  00000-0  67688-4 0  9994,2 52265  53.2160 132.0216 0001442  91.5650 268.5507 15.08840290104635,6917.88,95.438,540.742,538.747,0.0
52265.0,STARLINK-3740,PAYLOAD,2024-03-13 10:45:44,15.08836463,0.0001488,53.2174,129.3473,94.6841,265.4321,4.3268e-05,4.01e-06,0.0,0 STARLINK-3740,1 52265U 22041E   24073.44842692  .00000401  00000-0  43268-4 0  9996,2 52265  53.2174 129.3473 0001488  94.6841 265.4321 15.08836463105942,6917.891,95.438,540.786,538.727,0.0
52265.0,STARLINK-3740,PAYLOAD,2024-03-13 20:18:02,15.08841885,0.0001474,53.2174,127.5632,96.6173,263.4987,3.2512e-05,2.3e-06,0.0,0 STARLINK-3740,1 52265U 22041E   24073.84586410  .00000230  00000-0  32512-4 0  9993,2 52265  53.2174 127.5632 0001474  96.6173 263.4987 15.08841885104785,6917.875,95.437,540.759,538.72,0.0
52265.0,STARLINK-3740,PAYLOAD,2024-03-14 02:39:36,15.08799272,0.0001852,53.2172,126.3731,105.4772,254.6425,0.00075093,0.0001167,0.0,0 STARLINK-3740,1 52265U 22041E   24074.11083478  .00011670  00000-0  75093-3 0  9990,2 52265  53.2172 126.3731 0001852 105.4772 254.6425 15.08799272106046,6918.005,95.44,541.151,538.589,0.0
52265.0,STARLINK-3740,PAYLOAD,2024-03-14 10:36:30,15.08845814,0.0001477,53.2171,124.8865,98.212,261.9039,0.00019643,2.84e-05,0.0,0 STARLINK-3740,1 52265U 22041E   24074.44201952  .00002840  00000-0  19643-3 0  9993,2 52265  53.2171 124.8865 0001477  98.2120 261.9039 15.08845814106096,6917.863,95.437,540.749,538.706,0.0
52265.0,STARLINK-3740,PAYLOAD,2024-03-14 13:47:16,15.08848125,0.0001496,53.216,124.2913,99.6174,260.4988,0.00020368,2.956e-05,0.0,0 STARLINK-3740,1 52265U 22041E   24074.57449838  .00002956  00000-0  20368-3 0  9998,2 52265  53.2160 124.2913 0001496  99.6174 260.4988 15.08848125104898,6917.856,95.437,540.755,538.686,0.0
52265.0,STARLINK-3740,PAYLOAD,2024-03-15 12:02:41,15.08835104,0.0001526,53.2158,120.1277,81.3248,278.7917,1.2377e-05,-9.1e-07,0.0,0 STARLINK-3740,1 52265U 22041E   24075.50186825 -.00000091  00000-0  12377-4 0  9997,2 52265  53.2158 120.1277 0001526  81.3248 278.7917 15.08835104106256,6917.895,95.438,540.816,538.705,0.0
52265.0,STARLINK-3740,PAYLOAD,2024-03-16 10:18:04,15.08847944,0.0001561,53.2161,115.9636,79.1934,280.9234,0.00013735,1.899e-05,0.0,0 STARLINK-3740,1 52265U 22041E   24076.42922368  .00001899  00000-0  13735-3 0  9993,2 52265  53.2161 115.9636 0001561  79.1934 280.9234 15.08847944106394,6917.856,95.437,540.801,538.641,0.0
52265.0,STARLINK-3740,PAYLOAD,2024-03-17 11:44:15,15.08847363,0.0001722,53.2164,111.2035,75.0162,285.1021,0.00025028,3.698e-05,0.0,0 STARLINK-3740,1 52265U 22041E   24077.48906499  .00003698  00000-0  25028-3 0  9994,2 52265  53.2164 111.2035 0001722  75.0162 285.1021 15.08847363106550,6917.858,95.437,540.914,538.532,0.0
52265.0,STARLINK-3740,PAYLOAD,2024-03-18 08:24:15,15.08845185,0.0001852,53.2169,107.3378,105.3372,254.7825,4.0553e-05,3.57e-06,0.0,0 STARLINK-3740,1 52265U 22041E   24078.35018344  .00000357  00000-0  40553-4 0  9994,2 52265  53.2169 107.3378 0001852 105.3372 254.7825 15.08845185106683,6917.865,95.437,541.011,538.448,0.0
52265.0,STARLINK-3740,PAYLOAD,2024-03-19 11:25:48,15.08849924,0.0001778,53.2167,102.282,104.3873,255.7316,0.0001043,1.373e-05,0.0,0 STARLINK-3740,1 52265U 22041E   24079.47626128  .00001373  00000-0  10430-3 0  9992,2 52265  53.2167 102.2820 0001778 104.3873 255.7316 15.08849924106859,6917.85,95.437,540.945,538.485,0.0
52265.0,STARLINK-3740,PAYLOAD,2024-03-20 01:44:19,15.08807988,0.0001249,53.217,99.61,78.809,281.3042,-0.00028706,-4.849e-05,0.0,0 STARLINK-3740,1 52265U 22041E   24080.07245042 -.00004849  00000-0 -28706-3 0  9990,2 52265  53.2170  99.6100 0001249  78.8090 281.3042 15.08807988106947,6917.978,95.44,540.707,538.979,0.0
52265.0,STARLINK-3740,PAYLOAD,2024-03-20 06:30:28,15.0881891,0.000244,53.2153,98.7055,132.144,227.976,-0.0002216,-3.812e-05,0.0,0 STARLINK-3740,1 52265U 22041E   24080.27116654 -.00003812  00000-0 -22160-3 0  9995,2 52265  53.2153  98.7055 0002440 132.1440 227.9760 15.08818910106977,6917.945,95.439,541.498,538.122,0.0
52265.0,STARLINK-3740,PAYLOAD,2024-03-21 04:45:53,15.08833738,0.0001758,53.2155,94.5513,47.9299,312.1843,0.00028663,4.276e-05,0.0,0 STARLINK-3740,1 52265U 22041E   24081.19853203  .00004276  00000-0  28663-3 0  9992,2 52265  53.2155  94.5513 0001758  47.9299 312.1843 15.08833738107119,6917.9,95.438,540.981,538.548,0.0
52265.0,STARLINK-3740,PAYLOAD,2024-03-21 11:07:25,15.08858472,0.0001843,53.2159,93.3636,103.762,256.3578,0.0010475,0.00016431,0.0,0 STARLINK-3740,1 52265U 22041E   24081.46348800  .00016431  00000-0  10475-2 0  9991,2 52265  53.2159  93.3636 0001843 103.7620 256.3578 15.08858472107150,6917.824,95.436,540.964,538.414,0.0
52265.0,STARLINK-3740,PAYLOAD,2024-03-21 17:28:57,15.08869714,0.0001593,53.2139,92.1727,92.6673,267.4501,0.0011347,0.00017832,0.0,0 STARLINK-3740,1 52265U 22041E   24081.72844542  .00017832  00000-0  11347-2 0  9999,2 52265  53.2139  92.1727 0001593  92.6673 267.4501 15.08869714105970,6917.79,95.436,540.757,538.553,0.0
52265.0,STARLINK-3740,PAYLOAD,2024-03-22 04:36:38,15.08870697,0.0001929,53.2161,90.0915,100.4049,259.716,0.00067762,0.00010522,0.0,0 STARLINK-3740,1 52265U 22041E   24082.19211778  .00010522  00000-0  67762-3 0  9992,2 52265  53.2161  90.0915 0001929 100.4049 259.7160 15.08870697107260,6917.787,95.436,540.986,538.317,0.0
52265.0,STARLINK-3740,PAYLOAD,2024-03-22 09:22:47,15.08881222,0.0001945,53.2163,89.2032,106.0069,254.1137,0.00084609,0.00013218,0.0,0 STARLINK-3740,1 52265U 22041E   24082.39083199  .00013218  00000-0  84609-3 0  9992,2 52265  53.2163  89.2032 0001945 106.0069 254.1137 15.08881222106071,6917.754,95.435,540.965,538.274,0.0
52265.0,STARLINK-3740,PAYLOAD,2024-03-23 04:27:25,15.08843581,0.0001813,53.2157,85.6312,93.9855,266.1344,-0.00016114,-2.852e-05,0.0,0 STARLINK-3740,1 52265U 22041E   24083.18571306 -.00002852  00000-0 -16114-3 0  9992,2 52265  53.2157  85.6312 0001813  93.9855 266.1344 15.08843581107414,6917.869,95.437,540.989,538.48,0.0
52265.0,STARLINK-3740,PAYLOAD,2024-03-23 17:10:30,15.0884414,0.0001775,53.2157,83.2516,88.9602,271.1593,4.1986e-06,-2.21e-06,0.0,0 STARLINK-3740,1 52265U 22041E   24083.71563518 -.00000221  00000-0  41986-5 0  9991,2 52265  53.2157  83.2516 0001775  88.9602 271.1593 15.08844140106272,6917.868,95.437,540.961,538.505,0.0
52265.0,STARLINK-3740,PAYLOAD,2024-03-24 05:53:35,15.08849522,0.0001598,53.2149,80.8726,88.781,271.3365,0.00046313,7.092e-05,0.0,0 STARLINK-3740,1 52265U 22041E   24084.24555315  .00007092  00000-0  46313-3 0  9995,2 52265  53.2149  80.8726 0001598  88.7810 271.3365 15.08849522107573,6917.851,95.437,540.822,538.611,0.0
